{
  "type": "FeatureCollection",
  "features": [
    {
      "type": "Feature",
      "properties": {
        "norad_id": 35130,
        "name": "FENGYUN 1C DEB",
        "group": "fengyun-1c-debris",
        "lat": 67.22463001622918,
        "lon": -179.05636143345387,
        "alt_km": 546.8279341194584,
        "timestamp": "2025-12-22T23:36:21.001055+00:00",
        "meta_object_name": "FENGYUN 1C DEB",
        "meta_object_id": "1999-025DLJ",
        "meta_epoch": "2025-12-21T20:07:04.434528",
        "meta_mean_motion": 15.01765435,
        "meta_eccentricity": 0.00121415,
        "meta_inclination": 99.0319,
        "meta_ra_of_asc_node": 201.8749,
        "meta_arg_of_pericenter": 44.6238,
        "meta_mean_anomaly": 315.5957,
        "meta_ephemeris_type": 0,
        "meta_classification_type": "U",
        "meta_norad_cat_id": 35130,
        "meta_element_set_no": 999,
        "meta_rev_at_epoch": 65050,
        "meta_bstar": 0.006798984,
        "meta_mean_motion_dot": 0.00089702,
        "meta_mean_motion_ddot": 0,
        "tle_line1": "1 35130U 99025DLJ 25355.83824577  .00089702  00000+0  67990-2 0  9999",
        "tle_line2": "2 35130  99.0319 201.8749 0012141  44.6238 315.5957 15.01765435650500"
      },
      "geometry": {
        "type": "Point",
        "coordinates": [
          -179.05636143345387,
          67.22463001622918
        ]
      }
    },
    {
      "type": "Feature",
      "properties": {
        "norad_id": 35135,
        "name": "FENGYUN 1C DEB",
        "group": "fengyun-1c-debris",
        "lat": -4.8232926706773185,
        "lon": -175.22647804708924,
        "alt_km": 799.4594507590846,
        "timestamp": "2025-12-22T23:36:21.001065+00:00",
        "meta_object_name": "FENGYUN 1C DEB",
        "meta_object_id": "1999-025DLP",
        "meta_epoch": "2025-12-22T05:51:04.283712",
        "meta_mean_motion": 14.22559822,
        "meta_eccentricity": 0.00808612,
        "meta_inclination": 98.5643,
        "meta_ra_of_asc_node": 4.7831,
        "meta_arg_of_pericenter": 256.4236,
        "meta_mean_anomaly": 102.7926,
        "meta_ephemeris_type": 0,
        "meta_classification_type": "U",
        "meta_norad_cat_id": 35135,
        "meta_element_set_no": 999,
        "meta_rev_at_epoch": 87959,
        "meta_bstar": 0.00044303491,
        "meta_mean_motion_dot": 9.8e-06,
        "meta_mean_motion_ddot": 0,
        "tle_line1": "1 35135U 99025DLP 25356.24379958  .00000980  00000+0  44303-3 0  9993",
        "tle_line2": "2 35135  98.5643   4.7831 0080861 256.4236 102.7926 14.22559822879593"
      },
      "geometry": {
        "type": "Point",
        "coordinates": [
          -175.22647804708924,
          -4.8232926706773185
        ]
      }
    },
    {
      "type": "Feature",
      "properties": {
        "norad_id": 35139,
        "name": "FENGYUN 1C DEB",
        "group": "fengyun-1c-debris",
        "lat": -44.39548840061991,
        "lon": 173.41148479253755,
        "alt_km": 792.157211050132,
        "timestamp": "2025-12-22T23:36:21.001076+00:00",
        "meta_object_name": "FENGYUN 1C DEB",
        "meta_object_id": "1999-025DLT",
        "meta_epoch": "2025-12-17T05:40:19.572096",
        "meta_mean_motion": 14.2110105,
        "meta_eccentricity": 0.0067913,
        "meta_inclination": 98.584,
        "meta_ra_of_asc_node": 356.3312,
        "meta_arg_of_pericenter": 284.2558,
        "meta_mean_anomaly": 75.1083,
        "meta_ephemeris_type": 0,
        "meta_classification_type": "U",
        "meta_norad_cat_id": 35139,
        "meta_element_set_no": 999,
        "meta_rev_at_epoch": 64217,
        "meta_bstar": 0.0003366611,
        "meta_mean_motion_dot": 7.05e-06,
        "meta_mean_motion_ddot": 0,
        "tle_line1": "1 35139U 99025DLT 25351.23633764  .00000705  00000+0  33666-3 0  9994",
        "tle_line2": "2 35139  98.5840 356.3312 0067913 284.2558  75.1083 14.21101050642179"
      },
      "geometry": {
        "type": "Point",
        "coordinates": [
          173.41148479253755,
          -44.39548840061991
        ]
      }
    },
    {
      "type": "Feature",
      "properties": {
        "norad_id": 35140,
        "name": "FENGYUN 1C DEB",
        "group": "fengyun-1c-debris",
        "lat": -35.99689064313357,
        "lon": -15.87274391145345,
        "alt_km": 639.4113764076628,
        "timestamp": "2025-12-22T23:36:21.001088+00:00",
        "meta_object_name": "FENGYUN 1C DEB",
        "meta_object_id": "1999-025DLU",
        "meta_epoch": "2025-12-21T05:32:01.237632",
        "meta_mean_motion": 14.21359714,
        "meta_eccentricity": 0.0290236,
        "meta_inclination": 98.446,
        "meta_ra_of_asc_node": 336.251,
        "meta_arg_of_pericenter": 301.8774,
        "meta_mean_anomaly": 55.4461,
        "meta_ephemeris_type": 0,
        "meta_classification_type": "U",
        "meta_norad_cat_id": 35140,
        "meta_element_set_no": 999,
        "meta_rev_at_epoch": 87399,
        "meta_bstar": 0.00017323,
        "meta_mean_motion_dot": 5.27e-06,
        "meta_mean_motion_ddot": 0,
        "tle_line1": "1 35140U 99025DLU 25355.23056988  .00000527  00000+0  17323-3 0  9991",
        "tle_line2": "2 35140  98.4460 336.2510 0290236 301.8774  55.4461 14.21359714873996"
      },
      "geometry": {
        "type": "Point",
        "coordinates": [
          -15.87274391145345,
          -35.99689064313357
        ]
      }
    },
    {
      "type": "Feature",
      "properties": {
        "norad_id": 35142,
        "name": "FENGYUN 1C DEB",
        "group": "fengyun-1c-debris",
        "lat": -20.23743938357986,
        "lon": 165.49758383564745,
        "alt_km": 855.3774281236338,
        "timestamp": "2025-12-22T23:36:21.001099+00:00",
        "meta_object_name": "FENGYUN 1C DEB",
        "meta_object_id": "1999-025DLW",
        "meta_epoch": "2025-12-20T05:20:32.282304",
        "meta_mean_motion": 13.90510697,
        "meta_eccentricity": 0.0108018,
        "meta_inclination": 99.045,
        "meta_ra_of_asc_node": 346.1776,
        "meta_arg_of_pericenter": 193.6581,
        "meta_mean_anomaly": 232.9005,
        "meta_ephemeris_type": 0,
        "meta_classification_type": "U",
        "meta_norad_cat_id": 35142,
        "meta_element_set_no": 999,
        "meta_rev_at_epoch": 85793,
        "meta_bstar": 0.00017457,
        "meta_mean_motion_dot": 1.85e-06,
        "meta_mean_motion_ddot": 0,
        "tle_line1": "1 35142U 99025DLW 25354.22259586  .00000185  00000+0  17457-3 0  9998",
        "tle_line2": "2 35142  99.0450 346.1776 0108018 193.6581 232.9005 13.90510697857933"
      },
      "geometry": {
        "type": "Point",
        "coordinates": [
          165.49758383564745,
          -20.23743938357986
        ]
      }
    },
    {
      "type": "Feature",
      "properties": {
        "norad_id": 35144,
        "name": "FENGYUN 1C DEB",
        "group": "fengyun-1c-debris",
        "lat": 64.36538365781813,
        "lon": -48.57058441217735,
        "alt_km": 704.192904289077,
        "timestamp": "2025-12-22T23:36:21.001109+00:00",
        "meta_object_name": "FENGYUN 1C DEB",
        "meta_object_id": "1999-025DLY",
        "meta_epoch": "2025-12-15T03:29:25.584864",
        "meta_mean_motion": 14.59259684,
        "meta_eccentricity": 0.00266192,
        "meta_inclination": 98.6997,
        "meta_ra_of_asc_node": 104.611,
        "meta_arg_of_pericenter": 353.8009,
        "meta_mean_anomaly": 6.2856,
        "meta_ephemeris_type": 0,
        "meta_classification_type": "U",
        "meta_norad_cat_id": 35144,
        "meta_element_set_no": 999,
        "meta_rev_at_epoch": 65248,
        "meta_bstar": 0.0015089834,
        "meta_mean_motion_dot": 7.114e-05,
        "meta_mean_motion_ddot": 0,
        "tle_line1": "1 35144U 99025DLY 25349.14543501  .00007114  00000+0  15090-2 0  9997",
        "tle_line2": "2 35144  98.6997 104.6110 0026619 353.8009   6.2856 14.59259684652487"
      },
      "geometry": {
        "type": "Point",
        "coordinates": [
          -48.57058441217735,
          64.36538365781813
        ]
      }
    },
    {
      "type": "Feature",
      "properties": {
        "norad_id": 35147,
        "name": "FENGYUN 1C DEB",
        "group": "fengyun-1c-debris",
        "lat": 36.89978045066013,
        "lon": -100.77476944679422,
        "alt_km": 626.4436075589974,
        "timestamp": "2025-12-22T23:36:21.001121+00:00",
        "meta_object_name": "FENGYUN 1C DEB",
        "meta_object_id": "1999-025DMB",
        "meta_epoch": "2025-12-21T16:01:08.773824",
        "meta_mean_motion": 14.74533095,
        "meta_eccentricity": 0.00275361,
        "meta_inclination": 99.4858,
        "meta_ra_of_asc_node": 70.4745,
        "meta_arg_of_pericenter": 172.1748,
        "meta_mean_anomaly": 187.9891,
        "meta_ephemeris_type": 0,
        "meta_classification_type": "U",
        "meta_norad_cat_id": 35147,
        "meta_element_set_no": 999,
        "meta_rev_at_epoch": 74436,
        "meta_bstar": 0.0017500767,
        "meta_mean_motion_dot": 0.00011668,
        "meta_mean_motion_ddot": 0,
        "tle_line1": "1 35147U 99025DMB 25355.66746266  .00011668  00000+0  17501-2 0  9995",
        "tle_line2": "2 35147  99.4858  70.4745 0027536 172.1748 187.9891 14.74533095744363"
      },
      "geometry": {
        "type": "Point",
        "coordinates": [
          -100.77476944679422,
          36.89978045066013
        ]
      }
    }
  ]
}